{
  "type": "FeatureCollection",
  "features": [
    {
      "type": "Feature",
      "properties": {
        "norad_id": 65731,
        "name": "1998-067XK",
        "group": "stations",
        "lat": 40.22574082295262,
        "lon": 103.75370190611606,
        "alt_km": 356.5684126226597,
        "timestamp": "2025-12-27T14:26:29.277875+00:00",
        "meta_object_name": "1998-067XK",
        "meta_object_id": "1998-067XK",
        "meta_epoch": "2025-12-27T05:01:56.665632",
        "meta_mean_motion": 15.68597171,
        "meta_eccentricity": 0.00051245,
        "meta_inclination": 51.628,
        "meta_ra_of_asc_node": 63.6686,
        "meta_arg_of_pericenter": 335.1476,
        "meta_mean_anomaly": 24.9273,
        "meta_ephemeris_type": 0,
        "meta_classification_type": "U",
        "meta_norad_cat_id": 65731,
        "meta_element_set_no": 999,
        "meta_rev_at_epoch": 1541,
        "meta_bstar": 0.00095352598,
        "meta_mean_motion_dot": 0.00111483,
        "meta_mean_motion_ddot": 0,
        "tle_line1": "1 65731U 98067XK  25361.20968363  .00111483  00000+0  95353-3 0  9991",
        "tle_line2": "2 65731  51.6280  63.6686 0005124 335.1476  24.9273 15.68597171 15410"
      },
      "geometry": {
        "type": "Point",
        "coordinates": [
          103.75370190611606,
          40.22574082295262
        ]
      }
    },
    {
      "type": "Feature",
      "properties": {
        "norad_id": 65732,
        "name": "RSP-03",
        "group": "stations",
        "lat": -21.646983400620666,
        "lon": -101.08365749050748,
        "alt_km": 357.45251510404614,
        "timestamp": "2025-12-27T14:26:29.277885+00:00",
        "meta_object_name": "RSP-03",
        "meta_object_id": "1998-067XL",
        "meta_epoch": "2025-12-27T04:24:34.201152",
        "meta_mean_motion": 15.72475718,
        "meta_eccentricity": 0.0006157,
        "meta_inclination": 51.626,
        "meta_ra_of_asc_node": 62.7293,
        "meta_arg_of_pericenter": 342.7468,
        "meta_mean_anomaly": 17.332,
        "meta_ephemeris_type": 0,
        "meta_classification_type": "U",
        "meta_norad_cat_id": 65732,
        "meta_element_set_no": 999,
        "meta_rev_at_epoch": 1543,
        "meta_bstar": 0.0012339833,
        "meta_mean_motion_dot": 0.00171198,
        "meta_mean_motion_ddot": 0,
        "tle_line1": "1 65732U 98067XL  25361.18372918  .00171198  00000+0  12340-2 0  9997",
        "tle_line2": "2 65732  51.6260  62.7293 0006157 342.7468  17.3320 15.72475718 15433"
      },
      "geometry": {
        "type": "Point",
        "coordinates": [
          -101.08365749050748,
          -21.646983400620666
        ]
      }
    },
    {
      "type": "Feature",
      "properties": {
        "norad_id": 65733,
        "name": "GHS-01",
        "group": "stations",
        "lat": 3.587385479862812,
        "lon": -124.45397354549266,
        "alt_km": 331.1273595925204,
        "timestamp": "2025-12-27T14:26:29.277896+00:00",
        "meta_object_name": "GHS-01",
        "meta_object_id": "1998-067XM",
        "meta_epoch": "2025-12-26T21:01:30.345024",
        "meta_mean_motion": 15.81574264,
        "meta_eccentricity": 0.0009494,
        "meta_inclination": 51.6277,
        "meta_ra_of_asc_node": 62.1658,
        "meta_arg_of_pericenter": 4.8401,
        "meta_mean_anomaly": 355.2691,
        "meta_ephemeris_type": 0,
        "meta_classification_type": "U",
        "meta_norad_cat_id": 65733,
        "meta_element_set_no": 999,
        "meta_rev_at_epoch": 1541,
        "meta_bstar": 0.0015055,
        "meta_mean_motion_dot": 0.00319127,
        "meta_mean_motion_ddot": 0,
        "tle_line1": "1 65733U 98067XM  25360.87604566  .00319127  00000+0  15055-2 0  9992",
        "tle_line2": "2 65733  51.6277  62.1658 0009494   4.8401 355.2691 15.81574264 15410"
      },
      "geometry": {
        "type": "Point",
        "coordinates": [
          -124.45397354549266,
          3.587385479862812
        ]
      }
    },
    {
      "type": "Feature",
      "properties": {
        "norad_id": 65941,
        "name": "YOTSUBA-KULOVER",
        "group": "stations",
        "lat": 2.572783992158028,
        "lon": -116.870983660535,
        "alt_km": 385.57029038461224,
        "timestamp": "2025-12-27T14:26:29.277908+00:00",
        "meta_object_name": "YOTSUBA-KULOVER",
        "meta_object_id": "1998-067XN",
        "meta_epoch": "2025-12-27T06:00:30.216672",
        "meta_mean_motion": 15.61434985,
        "meta_eccentricity": 0.00027547,
        "meta_inclination": 51.629,
        "meta_ra_of_asc_node": 66.9415,
        "meta_arg_of_pericenter": 9.199,
        "meta_mean_anomaly": 350.9054,
        "meta_ephemeris_type": 0,
        "meta_classification_type": "U",
        "meta_norad_cat_id": 65941,
        "meta_element_set_no": 999,
        "meta_rev_at_epoch": 1212,
        "meta_bstar": 0.00083629815,
        "meta_mean_motion_dot": 0.00072986,
        "meta_mean_motion_ddot": 0,
        "tle_line1": "1 65941U 98067XN  25361.25034973  .00072986  00000+0  83630-3 0  9999",
        "tle_line2": "2 65941  51.6290  66.9415 0002754   9.1990 350.9054 15.61434985 12125"
      },
      "geometry": {
        "type": "Point",
        "coordinates": [
          -116.870983660535,
          2.572783992158028
        ]
      }
    },
    {
      "type": "Feature",
      "properties": {
        "norad_id": 65942,
        "name": "BOTAN",
        "group": "stations",
        "lat": -0.9895201833304101,
        "lon": 63.25320532336765,
        "alt_km": 368.48392167150996,
        "timestamp": "2025-12-27T14:26:29.277919+00:00",
        "meta_object_name": "BOTAN",
        "meta_object_id": "1998-067XP",
        "meta_epoch": "2025-12-27T05:15:28.443744",
        "meta_mean_motion": 15.66006349,
        "meta_eccentricity": 0.00036864,
        "meta_inclination": 51.6275,
        "meta_ra_of_asc_node": 65.9806,
        "meta_arg_of_pericenter": 351.9823,
        "meta_mean_anomaly": 8.1114,
        "meta_ephemeris_type": 0,
        "meta_classification_type": "U",
        "meta_norad_cat_id": 65942,
        "meta_element_set_no": 999,
        "meta_rev_at_epoch": 1213,
        "meta_bstar": 0.0011595855,
        "meta_mean_motion_dot": 0.00122237,
        "meta_mean_motion_ddot": 0,
        "tle_line1": "1 65942U 98067XP  25361.21907921  .00122237  00000+0  11596-2 0  9994",
        "tle_line2": "2 65942  51.6275  65.9806 0003686 351.9823   8.1114 15.66006349 12134"
      },
      "geometry": {
        "type": "Point",
        "coordinates": [
          63.25320532336765,
          -0.9895201833304101
        ]
      }
    },
    {
      "type": "Feature",
      "properties": {
        "norad_id": 65943,
        "name": "E-KAGAKU-1",
        "group": "stations",
        "lat": 2.927467535839569,
        "lon": -117.14829398924951,
        "alt_km": 384.66391978011416,
        "timestamp": "2025-12-27T14:26:29.277929+00:00",
        "meta_object_name": "E-KAGAKU-1",
        "meta_object_id": "1998-067XQ",
        "meta_epoch": "2025-12-26T11:34:38.215200",
        "meta_mean_motion": 15.61326456,
        "meta_eccentricity": 0.00014737,
        "meta_inclination": 51.6304,
        "meta_ra_of_asc_node": 70.8185,
        "meta_arg_of_pericenter": 333.5123,
        "meta_mean_anomaly": 26.5795,
        "meta_ephemeris_type": 0,
        "meta_classification_type": "U",
        "meta_norad_cat_id": 65943,
        "meta_element_set_no": 999,
        "meta_rev_at_epoch": 1200,
        "meta_bstar": 0.0007949653,
        "meta_mean_motion_dot": 0.00069021,
        "meta_mean_motion_ddot": 0,
        "tle_line1": "1 65943U 98067XQ  25360.48238675  .00069021  00000+0  79497-3 0  9992",
        "tle_line2": "2 65943  51.6304  70.8185 0001473 333.5123  26.5795 15.61326456 12008"
      },
      "geometry": {
        "type": "Point",
        "coordinates": [
          -117.14829398924951,
          2.927467535839569
        ]
      }
    },
    {
      "type": "Feature",
      "properties": {
        "norad_id": 66052,
        "name": "HRC MONOBLOCK CAMERA",
        "group": "stations",
        "lat": -23.098391669110267,
        "lon": -92.90363600909247,
        "alt_km": 403.989512150114,
        "timestamp": "2025-12-27T14:26:29.277939+00:00",
        "meta_object_name": "HRC MONOBLOCK CAMERA",
        "meta_object_id": "1998-067XR",
        "meta_epoch": "2025-12-27T07:22:24.497472",
        "meta_mean_motion": 15.55156889,
        "meta_eccentricity": 0.00018561,
        "meta_inclination": 51.6304,
        "meta_ra_of_asc_node": 68.8177,
        "meta_arg_of_pericenter": 258.0003,
        "meta_mean_anomaly": 102.078,
        "meta_ephemeris_type": 0,
        "meta_classification_type": "U",
        "meta_norad_cat_id": 66052,
        "meta_element_set_no": 999,
        "meta_rev_at_epoch": 1110,
        "meta_bstar": 0.00051894374,
        "meta_mean_motion_dot": 0.00035345,
        "meta_mean_motion_ddot": 0,
        "tle_line1": "1 66052U 98067XR  25361.30722798  .00035345  00000+0  51894-3 0  9993",
        "tle_line2": "2 66052  51.6304  68.8177 0001856 258.0003 102.0780 15.55156889 11109"
      },
      "geometry": {
        "type": "Point",
        "coordinates": [
          -92.90363600909247,
          -23.098391669110267
        ]
      }
    }
  ]
}